NORAD_CAT_ID,OBJECT_NAME,OBJECT_TYPE,EPOCH,MEAN_MOTION,ECCENTRICITY,INCLINATION,RA_OF_ASC_NODE,ARG_OF_PERICENTER,MEAN_ANOMALY,BSTAR,MEAN_MOTION_DOT,MEAN_MOTION_DDOT,TLE_LINE0,TLE_LINE1,TLE_LINE2,SEMIMAJOR_AXIS,PERIOD,APOGEE,PERIGEE,DECAYED
52659.0,STARLINK-3960,PAYLOAD,2023-02-21 11:00:41,15.08852868,0.0001636,53.2165,107.1218,90.2272,269.8908,0.00061167,9.464e-05,0.0,0 STARLINK-3960,1 52659U 22053D   23052.45881932  .00009464  00000-0  61167-3 0  9998,2 52659  53.2165 107.1218 0001636  90.2272 269.8908 15.08852868 43313,6917.841,95.437,540.838,538.574,0.0
52659.0,STARLINK-3960,PAYLOAD,2023-02-21 20:33:00,15.088567,0.0001742,53.2161,105.3368,81.0294,279.0895,0.00080236,0.0001251,0.0,0 STARLINK-3960,1 52659U 22053D   23052.85625811  .00012510  00000-0  80236-3 0  9998,2 52659  53.2161 105.3368 0001742  81.0294 279.0895 15.08856700 43378,6917.829,95.436,540.899,538.489,0.0
52659.0,STARLINK-3960,PAYLOAD,2023-02-22 02:54:33,15.08850415,0.0001988,53.216,104.1512,81.5947,278.527,0.00041172,6.272e-05,0.0,0 STARLINK-3960,1 52659U 22053D   23053.12121884  .00006272  00000-0  41172-3 0  9994,2 52659  53.2160 104.1512 0001988  81.5947 278.5270 15.08850415 43421,6917.849,95.437,541.089,538.338,0.0
52659.0,STARLINK-3960,PAYLOAD,2023-02-22 10:51:28,15.08844635,0.0001792,53.2168,102.6629,81.9366,278.1829,7.6796e-05,9.34e-06,0.0,0 STARLINK-3960,1 52659U 22053D   23053.45241855  .00000934  00000-0  76796-4 0  9991,2 52659  53.2168 102.6629 0001792  81.9366 278.1829 15.08844635 43460,6917.866,95.437,540.971,538.492,0.0
52659.0,STARLINK-3960,PAYLOAD,2023-02-22 20:23:47,15.0884173,0.0001644,53.2163,100.8779,84.5479,275.57,-4.7378e-06,-3.63e-06,0.0,0 STARLINK-3960,1 52659U 22053D   23053.84985953 -.00000363  00000-0 -47378-5 0  9991,2 52659  53.2163 100.8779 0001644  84.5479 275.5700 15.08841730 43520,6917.875,95.437,540.877,538.603,0.0
52659.0,STARLINK-3960,PAYLOAD,2023-02-23 09:06:53,15.08836716,0.0001629,53.2174,98.4958,97.6785,262.4393,-8.6403e-05,-1.663e-05,0.0,0 STARLINK-3960,1 52659U 22053D   23054.37978392 -.00001663  00000-0 -86403-4 0  9994,2 52659  53.2174  98.4958 0001629  97.6785 262.4393 15.08836716 43612,6917.89,95.438,540.882,538.629,0.0
52659.0,STARLINK-3960,PAYLOAD,2023-02-23 12:17:39,15.08838226,0.0001781,53.2179,97.9005,91.2184,268.9013,-2.3113e-05,-6.56e-06,0.0,0 STARLINK-3960,1 52659U 22053D   23054.51226388 -.00000656  00000-0 -23113-4 0  9991,2 52659  53.2179  97.9005 0001781  91.2184 268.9013 15.08838226 43625,6917.886,95.438,540.983,538.519,0.0
52659.0,STARLINK-3960,PAYLOAD,2023-02-23 20:14:35,15.08838466,0.0001712,53.2177,96.4146,89.0679,271.0509,3.0261e-05,1.94e-06,0.0,0 STARLINK-3960,1 52659U 22053D   23054.84346518  .00000194  00000-0  30261-4 0  9992,2 52659  53.2177  96.4146 0001712  89.0679 271.0509 15.08838466 43677,6917.885,95.438,540.934,538.566,0.0
52659.0,STARLINK-3960,PAYLOAD,2023-02-24 12:08:26,15.08852599,0.0001518,53.2167,93.441,88.5771,271.5395,0.0002527,3.737e-05,0.0,0 STARLINK-3960,1 52659U 22053D   23055.50585809  .00003737  00000-0  25270-3 0  9993,2 52659  53.2167  93.4410 0001518  88.5771 271.5395 15.08852599 43781,6917.842,95.437,540.757,538.657,0.0
52659.0,STARLINK-3960,PAYLOAD,2023-02-24 20:05:22,15.08834479,0.000152,53.2168,91.9552,91.051,269.0656,2.2008e-05,6.2e-07,0.0,0 STARLINK-3960,1 52659U 22053D   23055.83706689  .00000062  00000-0  22008-4 0  9995,2 52659  53.2168  91.9552 0001520  91.0510 269.0656 15.08834479 43829,6917.897,95.438,540.814,538.711,0.0
52659.0,STARLINK-3960,PAYLOAD,2023-02-25 02:26:55,15.08832321,0.0001546,53.2169,90.7645,98.8338,261.2829,8.91e-05,1.13e-05,0.0,0 STARLINK-3960,1 52659U 22053D   23056.10202970  .00001130  00000-0  89100-4 0  9993,2 52659  53.2169  90.7645 0001546  98.8338 261.2829 15.08832321 43876,6917.904,95.438,540.838,538.699,0.0
52659.0,STARLINK-3960,PAYLOAD,2023-02-25 11:59:13,15.08841744,0.000151,53.2166,88.9814,94.6661,265.4504,0.00019614,2.835e-05,0.0,0 STARLINK-3960,1 52659U 22053D   23056.49946755  .00002835  00000-0  19614-3 0  9996,2 52659  53.2166  88.9814 0001510  94.6661 265.4504 15.08841744 43925,6917.875,95.437,540.785,538.695,0.0
52659.0,STARLINK-3960,PAYLOAD,2023-02-25 13:34:37,15.08841205,0.0001513,53.2165,88.684,95.2119,264.9046,0.00022317,3.266e-05,0.0,0 STARLINK-3960,1 52659U 22053D   23056.56570752  .00003266  00000-0  22317-3 0  9997,2 52659  53.2165  88.6840 0001513  95.2119 264.9046 15.08841205 43936,6917.877,95.437,540.788,538.695,0.0
52659.0,STARLINK-3960,PAYLOAD,2023-02-26 11:50:00,15.08865736,0.0001488,53.2172,84.5217,98.3363,261.7798,0.0010354,0.0001624,0.0,0 STARLINK-3960,1 52659U 22053D   23057.49306220  .00016240  00000-0  10354-2 0  9990,2 52659  53.2172  84.5217 0001488  98.3363 261.7798 15.08865736 44084,6917.802,95.436,540.696,538.637,0.0
52659.0,STARLINK-3960,PAYLOAD,2023-02-26 13:25:23,15.08867742,0.0001522,53.217,84.2241,97.3992,262.7173,0.0010234,0.00016049,0.0,0 STARLINK-3960,1 52659U 22053D   23057.55930102  .00016049  00000-0  10234-2 0  9993,2 52659  53.2170  84.2241 0001522  97.3992 262.7173 15.08867742 44089,6917.796,95.436,540.713,538.608,0.0
52659.0,STARLINK-3960,PAYLOAD,2023-02-26 18:11:33,15.08832997,0.0001384,53.217,83.3321,103.9477,256.167,-0.00032566,-5.466e-05,0.0,0 STARLINK-3960,1 52659U 22053D   23057.75802707 -.00005466  00000-0 -32566-3 0  9990,2 52659  53.2170  83.3321 0001384 103.9477 256.1670 15.08832997 44113,6917.902,95.438,540.724,538.809,0.0
52659.0,STARLINK-3960,PAYLOAD,2023-02-27 10:05:24,15.0885688,0.0001465,53.2173,80.3586,107.7605,252.3547,0.0010729,0.00016836,0.0,0 STARLINK-3960,1 52659U 22053D   23058.42042629  .00016836  00000-0  10729-2 0  9991,2 52659  53.2173  80.3586 0001465 107.7605 252.3547 15.08856880 44221,6917.829,95.436,540.707,538.68,0.0
52659.0,STARLINK-3960,PAYLOAD,2023-02-27 18:02:20,15.08882088,0.0001731,53.2173,78.8718,90.2153,269.9038,0.002512,0.00039964,0.0,0 STARLINK-3960,1 52659U 22053D   23058.75162649  .00039964  00000-0  25120-2 0  9990,2 52659  53.2173  78.8718 0001731  90.2153 269.9038 15.08882088 44262,6917.752,95.435,540.814,538.419,0.0
52659.0,STARLINK-3960,PAYLOAD,2023-02-28 00:23:53,15.08861504,0.0001752,53.2173,77.6824,111.0797,249.0383,0.0014831,0.00023408,0.0,0 STARLINK-3960,1 52659U 22053D   23059.01658681  .00023408  00000-0  14831-2 0  9999,2 52659  53.2173  77.6824 0001752 111.0797 249.0383 15.08861504 44314,6917.815,95.436,540.892,538.468,0.0
52659.0,STARLINK-3960,PAYLOAD,2023-02-28 06:45:25,15.08860509,0.0001281,53.217,76.4935,94.5345,265.5794,0.001493,0.00023566,0.0,0 STARLINK-3960,1 52659U 22053D   23059.28154523  .00023566  00000-0  14930-2 0  9999,2 52659  53.2170  76.4935 0001281  94.5345 265.5794 15.08860509 44359,6917.818,95.436,540.569,538.797,0.0
52659.0,STARLINK-3960,PAYLOAD,2023-02-28 11:31:34,15.08874269,0.000144,53.2169,75.6009,88.7371,271.3786,0.0018169,0.00028774,0.0,0 STARLINK-3960,1 52659U 22053D   23059.48026094  .00028774  00000-0  18169-2 0  9996,2 52659  53.2169  75.6009 0001440  88.7371 271.3786 15.08874269 44377,6917.776,95.435,540.637,538.644,0.0
52659.0,STARLINK-3960,PAYLOAD,2023-02-28 17:53:07,15.08857016,0.0001977,53.2169,74.4116,77.7715,282.3499,0.00064292,9.964e-05,0.0,0 STARLINK-3960,1 52659U 22053D   23059.74522299  .00009964  00000-0  64292-3 0  9992,2 52659  53.2169  74.4116 0001977  77.7715 282.3499 15.08857016 44417,6917.828,95.436,541.061,538.326,0.0
52659.0,STARLINK-3960,PAYLOAD,2023-03-01 09:46:58,15.08847675,0.000136,53.2168,71.4376,77.7623,282.3521,0.0016901,0.00026718,0.0,0 STARLINK-3960,1 52659U 22053D   23060.40762454  .00026718  00000-0  16901-2 0  9995,2 52659  53.2168  71.4376 0001360  77.7623 282.3521 15.08847675 44523,6917.857,95.437,540.663,538.781,0.0
52659.0,STARLINK-3960,PAYLOAD,2023-03-01 17:43:54,15.08833335,0.0001244,53.2175,69.9507,89.6009,270.5126,0.00037664,5.71e-05,0.0,0 STARLINK-3960,1 52659U 22053D   23060.73882707  .00005710  00000-0  37664-3 0  9994,2 52659  53.2175  69.9507 0001244  89.6009 270.5126 15.08833335 44573,6917.901,95.438,540.626,538.905,0.0
52659.0,STARLINK-3960,PAYLOAD,2023-03-02 17:34:41,15.08851093,0.0001262,53.217,65.4906,97.2389,262.8746,0.0012475,0.00019628,0.0,0 STARLINK-3960,1 52659U 22053D   23061.73242934  .00019628  00000-0  12475-2 0  9992,2 52659  53.2170  65.4906 0001262  97.2389 262.8746 15.08851093 44717,6917.846,95.437,540.585,538.838,0.0
52659.0,STARLINK-3960,PAYLOAD,2023-03-03 06:17:46,15.0886109,0.0001423,53.2173,63.1116,101.3943,258.7209,0.0016696,0.00026399,0.0,0 STARLINK-3960,1 52659U 22053D   23062.26234848  .00026399  00000-0  16696-2 0  9998,2 52659  53.2173  63.1116 0001423 101.3943 258.7209 15.08861090 44806,6917.816,95.436,540.665,538.697,0.0
52659.0,STARLINK-3960,PAYLOAD,2023-03-03 09:28:33,15.0886559,0.0001411,53.2171,62.5175,99.915,260.2001,0.0016907,0.00026741,0.0,0 STARLINK-3960,1 52659U 22053D   23062.39482676  .00026741  00000-0  16907-2 0  9992,2 52659  53.2171  62.5175 0001411  99.9150 260.2001 15.08865590 44819,6917.802,95.436,540.643,538.691,0.0
52659.0,STARLINK-3960,PAYLOAD,2023-03-03 17:25:28,15.08854351,0.0001584,53.2175,61.0304,85.5778,274.5395,0.0011287,0.00017728,0.0,0 STARLINK-3960,1 52659U 22053D   23062.72602871  .00017728  00000-0  11287-2 0  9991,2 52659  53.2175  61.0304 0001584  85.5778 274.5395 15.08854351 44872,6917.837,95.437,540.797,538.606,0.0
52659.0,STARLINK-3960,PAYLOAD,2023-03-04 09:19:19,15.08873878,0.0001277,53.2173,58.0566,89.8717,270.2421,0.0014623,0.00023083,0.0,0 STARLINK-3960,1 52659U 22053D   23063.38841918  .00023083  00000-0  14623-2 0  9999,2 52659  53.2173  58.0566 0001277  89.8717 270.2421 15.08873878 44963,6917.777,95.435,540.525,538.758,0.0
52659.0,STARLINK-3960,PAYLOAD,2023-03-05 09:10:07,15.08846172,0.0001281,53.2171,53.5964,105.5323,254.581,0.0016638,0.00026295,0.0,0 STARLINK-3960,1 52659U 22053D   23064.38202894  .00026295  00000-0  16638-2 0  9990,2 52659  53.2171  53.5964 0001281 105.5323 254.5810 15.08846172 45120,6917.862,95.437,540.613,538.84,0.0
